NORAD_CAT_ID,OBJECT_NAME,OBJECT_TYPE,EPOCH,MEAN_MOTION,ECCENTRICITY,INCLINATION,RA_OF_ASC_NODE,ARG_OF_PERICENTER,MEAN_ANOMALY,BSTAR,MEAN_MOTION_DOT,MEAN_MOTION_DDOT,TLE_LINE0,TLE_LINE1,TLE_LINE2,SEMIMAJOR_AXIS,PERIOD,APOGEE,PERIGEE,DECAYED
53561.0,STARLINK-4563,PAYLOAD,2024-01-27 22:49:39,15.08841469,0.0001531,53.218,288.5896,94.612,265.5047,8.0294e-05,9.9e-06,0.0,0 STARLINK-4563,1 53561U 22101AL  24027.95115435  .00000990  00000-0  80294-4 0  9999,2 53561  53.2180 288.5896 0001531  94.6120 265.5047 15.08841469 79808,6917.876,95.437,540.8,538.682,0.0
53561.0,STARLINK-4563,PAYLOAD,2024-01-28 17:54:17,15.08835978,0.0001509,53.2177,285.0226,91.003,269.1135,3.7066e-05,3.02e-06,0.0,0 STARLINK-4563,1 53561U 22101AL  24028.74604091  .00000302  00000-0  37066-4 0  9994,2 53561  53.2177 285.0226 0001509  91.0030 269.1135 15.08835978 79928,6917.893,95.438,540.802,538.714,0.0
53561.0,STARLINK-4563,PAYLOAD,2024-01-28 22:40:27,15.08834543,0.000149,53.2177,284.1313,88.4656,271.6507,1.692e-05,-1.9e-07,0.0,0 STARLINK-4563,1 53561U 22101AL  24028.94476287 -.00000019  00000-0  16920-4 0  9992,2 53561  53.2177 284.1313 0001490  88.4656 271.6507 15.08834543 79959,6917.897,95.438,540.793,538.731,0.0
53561.0,STARLINK-4563,PAYLOAD,2024-01-29 01:51:13,15.08835987,0.0001505,53.2179,283.537,88.6203,271.4962,2.4975e-05,1.09e-06,0.0,0 STARLINK-4563,1 53561U 22101AL  24029.07724199  .00000109  00000-0  24975-4 0  9993,2 53561  53.2179 283.5370 0001505  88.6203 271.4962 15.08835987 79972,6917.893,95.438,540.799,538.717,0.0
53561.0,STARLINK-4563,PAYLOAD,2024-01-30 16:00:28,15.08839571,0.0001463,53.2179,276.3997,86.6574,273.4586,9.8955e-05,1.287e-05,0.0,0 STARLINK-4563,1 53561U 22101AL  24030.66699950  .00001287  00000-0  98955-4 0  9993,2 53561  53.2179 276.3997 0001463  86.6574 273.4586 15.08839571 80215,6917.882,95.438,540.759,538.735,0.0
53561.0,STARLINK-4563,PAYLOAD,2024-01-30 22:22:04,15.08786267,0.0001629,53.2177,275.2128,85.7919,274.3259,-0.00037483,-6.24e-05,0.0,0 STARLINK-4563,1 53561U 22101AL  24030.93199849 -.00006240  00000-0 -37483-3 0  9999,2 53561  53.2177 275.2128 0001629  85.7919 274.3259 15.08786267 80258,6918.045,95.441,541.037,538.783,0.0
53561.0,STARLINK-4563,PAYLOAD,2024-01-30 23:57:28,15.08777563,0.0001753,53.2175,274.9185,82.8858,277.2333,-0.00044861,-7.408e-05,0.0,0 STARLINK-4563,1 53561U 22101AL  24030.99824610 -.00007408  00000-0 -44861-3 0  9991,2 53561  53.2175 274.9185 0001753  82.8858 277.2333 15.08777563 80268,6918.071,95.442,541.149,538.724,0.0
53561.0,STARLINK-4563,PAYLOAD,2024-02-01 02:58:57,15.08808124,0.0001671,53.2172,269.8629,72.2381,287.8794,0.00053362,8.207e-05,0.0,0 STARLINK-4563,1 53561U 22101AL  24032.12427975  .00008207  00000-0  53362-3 0  9993,2 53561  53.2172 269.8629 0001671  72.2381 287.8794 15.08808124 80439,6917.978,95.44,540.999,538.687,0.0
53561.0,STARLINK-4563,PAYLOAD,2024-02-01 15:42:03,15.08819366,0.0001643,53.2165,267.4819,68.5464,291.5703,0.00045088,6.891e-05,0.0,0 STARLINK-4563,1 53561U 22101AL  24032.65420670  .00006891  00000-0  45088-3 0  9999,2 53561  53.2165 267.4819 0001643  68.5464 291.5703 15.08819366 80516,6917.943,95.439,540.945,538.672,0.0
53561.0,STARLINK-4563,PAYLOAD,2024-02-02 18:43:36,15.08842754,0.0001441,53.2167,262.4228,88.7594,271.3563,6.6864e-05,7.76e-06,0.0,0 STARLINK-4563,1 53561U 22101AL  24033.78028331  .00000776  00000-0  66864-4 0  9994,2 53561  53.2167 262.4228 0001441  88.7594 271.3563 15.08842754 80686,6917.872,95.437,540.734,538.74,0.0
53561.0,STARLINK-4563,PAYLOAD,2024-02-02 20:18:59,15.08846713,0.0001502,53.2156,262.1201,108.5014,251.6142,3.8952e-05,3.32e-06,0.0,0 STARLINK-4563,1 53561U 22101AL  24033.84652078  .00000332  00000-0  38952-4 0  9997,2 53561  53.2156 262.1201 0001502 108.5014 251.6142 15.08846713 80692,6917.86,95.437,540.764,538.686,0.0
53561.0,STARLINK-4563,PAYLOAD,2024-02-03 20:09:46,15.08842209,0.0001225,53.217,257.665,80.5372,279.5758,-2.2185e-05,-6.41e-06,0.0,0 STARLINK-4563,1 53561U 22101AL  24034.84012503 -.00000641  00000-0 -22185-4 0  9997,2 53561  53.2170 257.6650 0001225  80.5372 279.5758 15.08842209 80848,6917.874,95.437,540.586,538.891,0.0
53561.0,STARLINK-4563,PAYLOAD,2024-02-03 21:45:09,15.08842567,0.0001402,53.2165,257.3668,99.1737,260.9414,-1.8866e-05,-5.88e-06,0.0,0 STARLINK-4563,1 53561U 22101AL  24034.90636348 -.00000588  00000-0 -18866-4 0  9994,2 53561  53.2165 257.3668 0001402  99.1737 260.9414 15.08842567 80857,6917.873,95.437,540.707,538.768,0.0
53561.0,STARLINK-4563,PAYLOAD,2024-02-04 21:35:56,15.08838806,0.0001421,53.2166,252.908,102.9981,257.117,3.0538e-05,1.98e-06,0.0,0 STARLINK-4563,1 53561U 22101AL  24035.89996364  .00000198  00000-0  30538-4 0  9995,2 53561  53.2166 252.9080 0001421 102.9981 257.1170 15.08838806 81008,6917.884,95.438,540.732,538.766,0.0
53561.0,STARLINK-4563,PAYLOAD,2024-02-04 23:11:19,15.08840072,0.0001373,53.2166,252.6103,97.0958,263.0191,3.9172e-05,3.36e-06,0.0,0 STARLINK-4563,1 53561U 22101AL  24035.96620281  .00000336  00000-0  39172-4 0  9992,2 53561  53.2166 252.6103 0001373  97.0958 263.0191 15.08840072 81013,6917.88,95.438,540.695,538.795,0.0
53561.0,STARLINK-4563,PAYLOAD,2024-02-05 07:08:15,15.08839629,0.0001322,53.2162,251.1212,86.1821,273.9322,5.4463e-05,5.79e-06,0.0,0 STARLINK-4563,1 53561U 22101AL  24036.29740312  .00000579  00000-0  54463-4 0  9996,2 53561  53.2162 251.1212 0001322  86.1821 273.9322 15.08839629 81063,6917.882,95.438,540.661,538.832,0.0
53561.0,STARLINK-4563,PAYLOAD,2024-02-05 21:26:43,15.08839287,0.000136,53.2165,248.447,91.2482,268.8666,4.6244e-05,4.48e-06,0.0,0 STARLINK-4563,1 53561U 22101AL  24036.89356448  .00000448  00000-0  46244-4 0  9998,2 53561  53.2165 248.4470 0001360  91.2482 268.8666 15.08839287 81157,6917.883,95.438,540.688,538.807,0.0
53561.0,STARLINK-4563,PAYLOAD,2024-02-06 00:37:30,15.08840543,0.000139,53.2165,247.8505,86.7064,273.4087,5.3415e-05,5.62e-06,0.0,0 STARLINK-4563,1 53561U 22101AL  24037.02604355  .00000562  00000-0  53415-4 0  9992,2 53561  53.2165 247.8505 0001390  86.7064 273.4087 15.08840543 81175,6917.879,95.438,540.705,538.782,0.0
53561.0,STARLINK-4563,PAYLOAD,2024-02-06 21:17:31,15.08839773,0.0001498,53.2172,243.9828,79.3508,280.7653,2.9611e-05,1.83e-06,0.0,0 STARLINK-4563,1 53561U 22101AL  24037.88716679  .00000183  00000-0  29611-4 0  9999,2 53561  53.2172 243.9828 0001498  79.3508 280.7653 15.08839773 81306,6917.881,95.438,540.782,538.71,0.0
53561.0,STARLINK-4563,PAYLOAD,2024-02-07 19:32:55,15.0883214,0.0001351,53.2164,239.8208,89.4379,270.6768,0.00015876,2.239e-05,0.0,0 STARLINK-4563,1 53561U 22101AL  24038.81452873  .00002239  00000-0  15876-3 0  9997,2 53561  53.2164 239.8208 0001351  89.4379 270.6768 15.08832140 81440,6917.904,95.438,540.704,538.835,0.0
53561.0,STARLINK-4563,PAYLOAD,2024-02-07 22:43:41,15.08842714,0.0001396,53.2164,239.2253,88.4156,271.6996,5.1141e-05,5.26e-06,0.0,0 STARLINK-4563,1 53561U 22101AL  24038.94700421  .00000526  00000-0  51141-4 0  9999,2 53561  53.2164 239.2253 0001396  88.4156 271.6996 15.08842714 81469,6917.872,95.437,540.703,538.771,0.0
53561.0,STARLINK-4563,PAYLOAD,2024-02-08 13:02:09,15.08831605,0.0001437,53.2165,236.5501,90.6131,269.5025,0.00016613,2.356e-05,0.0,0 STARLINK-4563,1 53561U 22101AL  24039.54316936  .00002356  00000-0  16613-3 0  9997,2 53561  53.2165 236.5501 0001437  90.6131 269.5025 15.08831605 81556,6917.906,95.438,540.765,538.777,0.0
53561.0,STARLINK-4563,PAYLOAD,2024-02-08 19:23:41,15.08842748,0.0001464,53.2161,235.3612,86.1537,273.9622,6.5318e-05,7.52e-06,0.0,0 STARLINK-4563,1 53561U 22101AL  24039.80812434  .00000752  00000-0  65318-4 0  9995,2 53561  53.2161 235.3612 0001464  86.1537 273.9622 15.08842748 81598,6917.872,95.437,540.75,538.724,0.0
53561.0,STARLINK-4563,PAYLOAD,2024-02-09 19:14:28,15.08842954,0.0001456,53.2163,230.9002,88.1385,271.9774,3.6194e-05,2.88e-06,0.0,0 STARLINK-4563,1 53561U 22101AL  24040.80172349  .00000288  00000-0  36194-4 0  9995,2 53561  53.2163 230.9002 0001456  88.1385 271.9774 15.08842954 81740,6917.871,95.437,540.744,538.729,0.0
53561.0,STARLINK-4563,PAYLOAD,2024-02-09 22:25:15,15.08843875,0.0001465,53.2164,230.305,89.7895,270.3265,4.4968e-05,4.28e-06,0.0,0 STARLINK-4563,1 53561U 22101AL  24040.93420212  .00000428  00000-0  44968-4 0  9998,2 53561  53.2164 230.3050 0001465  89.7895 270.3265 15.08843875 81764,6917.869,95.437,540.747,538.72,0.0
53561.0,STARLINK-4563,PAYLOAD,2024-02-10 19:05:16,15.08839282,0.0001502,53.2168,226.4381,106.1517,253.964,-1.9756e-05,-6.02e-06,0.0,0 STARLINK-4563,1 53561U 22101AL  24041.79532649 -.00000602  00000-0 -19756-4 0  9994,2 53561  53.2168 226.4381 0001502 106.1517 253.9640 15.08839282 81893,6917.883,95.438,540.787,538.709,0.0
53561.0,STARLINK-4563,PAYLOAD,2024-02-10 22:16:02,15.08839217,0.0001493,53.2167,225.8433,105.6675,254.4482,-2.0574e-05,-6.15e-06,0.0,0 STARLINK-4563,1 53561U 22101AL  24041.92780651 -.00000615  00000-0 -20574-4 0  9991,2 53561  53.2167 225.8433 0001493 105.6675 254.4482 15.08839217 81912,6917.883,95.438,540.781,538.715,0.0
53561.0,STARLINK-4563,PAYLOAD,2024-02-11 12:34:30,15.08838545,0.0001446,53.2168,223.1662,102.1756,257.9398,2.2974e-05,7.8e-07,0.0,0 STARLINK-4563,1 53561U 22101AL  24042.52396569  .00000078  00000-0  22974-4 0  9996,2 53561  53.2168 223.1662 0001446 102.1756 257.9398 15.08838545 82006,6917.885,95.438,540.75,538.75,0.0
53561.0,STARLINK-4563,PAYLOAD,2024-02-11 17:20:39,15.08841113,0.0001454,53.2169,222.2741,102.318,257.7975,4.4658e-05,4.23e-06,0.0,0 STARLINK-4563,1 53561U 22101AL  24042.72268356  .00000423  00000-0  44658-4 0  9997,2 53561  53.2169 222.2741 0001454 102.3180 257.7975 15.08841113 82034,6917.877,95.437,540.748,538.736,0.0
53561.0,STARLINK-4563,PAYLOAD,2024-02-12 10:49:54,15.08834932,0.0001371,53.2166,219.005,97.0964,263.0184,4.3807e-05,4.09e-06,0.0,0 STARLINK-4563,1 53561U 22101AL  24043.45132933  .00000409  00000-0  43807-4 0  9998,2 53561  53.2166 219.0050 0001371  97.0964 263.0184 15.08834932 82141,6917.896,95.438,540.709,538.812,0.0
